BEIDOU-2 G5             
1 38091U 12008A   26062.95469660  .00000044  00000+0  00000+0 0  9999
2 38091   3.3114  70.3138 0014112 250.2593 243.6089  1.00276204 51316
BEIDOU-2 M3             
1 38250U 12018A   26062.40807551 -.00000060  00000+0  00000+0 0  9991
2 38250  55.8472 308.4420 0021171 279.5872  80.2341  1.86229789 93972
BEIDOU-2 M4             
1 38251U 12018B   26061.80325391 -.00000055  00000+0  00000+0 0  9996
2 38251  55.7490 307.6853 0012856 286.3325  73.5869  1.86229510 93963
SES-5                   
1 38652U 12036A   26062.91642018  .00000020  00000+0  00000+0 0  9993
2 38652   0.0611 310.1497 0002033  28.1563 158.2441  1.00271795 43400
BEIDOU-2 M6             
1 38775U 12050B   26060.97652929 -.00000006  00000+0  00000+0 0  9996
2 38775  56.4507  66.4378 0013903 341.6100  18.3756  1.86230866 91318
GSAT-10                 
1 38779U 12051B   26062.45600324 -.00000179  00000+0  00000+0 0  9999
2 38779   0.0759 263.9438 0004157 175.5434 328.8469  1.00273302 49032
NAVSTAR 67 (USA 239)    
1 38833U 12053A   26062.61980185  .00000002  00000+0  00000+0 0  9990
2 38833  53.5658 147.9256 0176929  64.7741 297.0883  2.00565790 97328
GSAT0103 (GALILEO-FM3)  
1 38857U 12055A   26061.13039064  .00000014  00000+0  00000+0 0  9998
2 38857  55.7369 104.4827 0005349 284.8926  75.1340  1.70473355 83189
BEIDOU-2 G6             
1 38953U 12059A   26063.10227411 -.00000185  00000+0  00000+0 0  9993
2 38953   4.1554  74.6500 0010672 304.2337 263.7683  1.00269514 48857
LUCH-5B                 
1 38977U 12061A   26062.90224160 -.00000146  00000+0  00000+0 0  9994
2 38977  10.2575  50.9099 0004391 223.3648 195.8772  1.00271596 48555
COSMOS 2485 [GLONASS-M] 
1 39155U 13019A   26062.79603716  .00000021  00000+0  00000+0 0  9993
2 39155  65.3593  77.1407 0025506 236.8284 122.9730  2.13102935100037
NAVSTAR 68 (USA 242)    
1 39166U 13023A   26060.98893270  .00000006  00000+0  00000+0 0  9998
2 39166  54.5878 273.3391 0141552  49.8819 311.3944  2.00564153 93732
IRNSS-1A                
1 39199U 13034A   26062.59712745  .00000081  00000+0  00000+0 0  9995
2 39199  35.4874  65.3779 0017825 190.7092 175.2371  1.00269823 46313
NAVSTAR 69 (USA 248)    
1 39533U 14008A   26061.48588350 -.00000013  00000+0  00000+0 0  9995
2 39533  53.6376 153.6733 0082226 228.2234 131.0919  2.00552925 87544
ASTRA 5B                
1 39617U 14011B   26062.87643001  .00000123  00000+0  00000+0 0  9992
2 39617   0.0921 298.3468 0004171  26.4522 175.8209  1.00270646 43616
COSMOS 2492 [GLONASS-M] 
1 39620U 14012A   26060.87784062 -.00000046  00000+0  00000+0 0  9993
2 39620  65.3591 317.5854 0013264 325.8526  34.1188  2.13103112 92955
IRNSS-1B                
1 39635U 14017A   26062.54882074  .00000102  00000+0  00000+0 0  9994
2 39635  29.1127 242.2056 0021171 179.2461 352.3815  1.00270890 43734
